0 COSMOS 2251 DEB
1 36430U 93036BAD 13281.14159388  .00000616  00000-0  27864-3 0  2065
2 36430 074.0084 208.1743 0104600 305.3696 053.7838 14.21297310210084
0 COSMOS 2251 DEB
1 36430U 93036BAD 13283.46431828  .00000661  00000-0  29836-3 0  2076
2 36430 074.0068 204.0031 0104914 300.8007 058.2878 14.21301369210416
0 COSMOS 2251 DEB
1 36430U 93036BAD 13286.13896818  .00000668  00000-0  30104-3 0  2085
2 36430 074.0057 199.1979 0105168 295.4317 063.5995 14.21305208210790
0 COSMOS 2251 DEB
1 36430U 93036BAD 13289.09515459  .00000683  00000-0  30750-3 0  2097
2 36430 074.0052 193.8921 0105439 289.5579 069.4298 14.21309794211211
0 COSMOS 2251 DEB
1 36430U 93036BAD 13292.40325502  .00000694  00000-0  31223-3 0  2104
2 36430 074.0045 187.9496 0105752 282.9147 076.0217 14.21314947211682
0 COSMOS 2251 DEB
1 36430U 93036BAD 13295.00750133  .00000703  00000-0  31608-3 0  2114
2 36430 074.0021 183.2672 0105408 277.8045 081.1161 14.21318839212050
